{
  "type": "FeatureCollection",
  "features": [
    {
      "type": "Feature",
      "properties": {
        "norad_id": 30405,
        "name": "FENGYUN 1C DEB",
        "group": "fengyun-1c-debris",
        "lat": 72.27261957657147,
        "lon": -55.999961231578496,
        "alt_km": 751.927762559897,
        "timestamp": "2025-12-26T22:28:06.060537+00:00",
        "meta_object_name": "FENGYUN 1C DEB",
        "meta_object_id": "1999-025ADU",
        "meta_epoch": "2025-12-26T12:29:32.983296",
        "meta_mean_motion": 14.29027661,
        "meta_eccentricity": 0.00507449,
        "meta_inclination": 98.7927,
        "meta_ra_of_asc_node": 94.6221,
        "meta_arg_of_pericenter": 114.5751,
        "meta_mean_anomaly": 13.7713,
        "meta_ephemeris_type": 0,
        "meta_classification_type": "U",
        "meta_norad_cat_id": 30405,
        "meta_element_set_no": 999,
        "meta_rev_at_epoch": 97592,
        "meta_bstar": 0.0016818106,
        "meta_mean_motion_dot": 4.274e-05,
        "meta_mean_motion_ddot": 0,
        "tle_line1": "1 30405U 99025ADU 25360.52052064  .00004274  00000+0  16818-2 0  9999",
        "tle_line2": "2 30405  98.7927  94.6221 0050744 114.5751  13.7713 14.29027661975926"
      },
      "geometry": {
        "type": "Point",
        "coordinates": [
          -55.999961231578496,
          72.27261957657147
        ]
      }
    },
    {
      "type": "Feature",
      "properties": {
        "norad_id": 30406,
        "name": "FENGYUN 1C DEB",
        "group": "fengyun-1c-debris",
        "lat": 68.49505259199599,
        "lon": 92.56113448818523,
        "alt_km": 1205.0788296980509,
        "timestamp": "2025-12-26T22:28:06.060547+00:00",
        "meta_object_name": "FENGYUN 1C DEB",
        "meta_object_id": "1999-025ADV",
        "meta_epoch": "2025-12-25T16:02:12.712416",
        "meta_mean_motion": 13.59264287,
        "meta_eccentricity": 0.0282863,
        "meta_inclination": 98.6211,
        "meta_ra_of_asc_node": 248.7986,
        "meta_arg_of_pericenter": 326.4016,
        "meta_mean_anomaly": 60.1601,
        "meta_ephemeris_type": 0,
        "meta_classification_type": "U",
        "meta_norad_cat_id": 30406,
        "meta_element_set_no": 999,
        "meta_rev_at_epoch": 93342,
        "meta_bstar": 0.0021391,
        "meta_mean_motion_dot": 2.013e-05,
        "meta_mean_motion_ddot": 0,
        "tle_line1": "1 30406U 99025ADV 25359.66820269  .00002013  00000+0  21391-2 0  9994",
        "tle_line2": "2 30406  98.6211 248.7986 0282863 326.4016  60.1601 13.59264287933429"
      },
      "geometry": {
        "type": "Point",
        "coordinates": [
          92.56113448818523,
          68.49505259199599
        ]
      }
    },
    {
      "type": "Feature",
      "properties": {
        "norad_id": 30409,
        "name": "FENGYUN 1C DEB",
        "group": "fengyun-1c-debris",
        "lat": -37.99075514162744,
        "lon": -5.945574671032978,
        "alt_km": 765.9466021355165,
        "timestamp": "2025-12-26T22:28:06.060558+00:00",
        "meta_object_name": "FENGYUN 1C DEB",
        "meta_object_id": "1999-025ADY",
        "meta_epoch": "2025-12-26T11:17:36.100608",
        "meta_mean_motion": 14.03775883,
        "meta_eccentricity": 0.01672723,
        "meta_inclination": 98.4744,
        "meta_ra_of_asc_node": 346.9333,
        "meta_arg_of_pericenter": 326.9202,
        "meta_mean_anomaly": 163.06,
        "meta_ephemeris_type": 0,
        "meta_classification_type": "U",
        "meta_norad_cat_id": 30409,
        "meta_element_set_no": 999,
        "meta_rev_at_epoch": 96622,
        "meta_bstar": 0.00084245337,
        "meta_mean_motion_dot": 1.461e-05,
        "meta_mean_motion_ddot": 0,
        "tle_line1": "1 30409U 99025ADY 25360.47055672  .00001461  00000+0  84245-3 0  9990",
        "tle_line2": "2 30409  98.4744 346.9333 0167272 326.9202 163.0600 14.03775883966221"
      },
      "geometry": {
        "type": "Point",
        "coordinates": [
          -5.945574671032978,
          -37.99075514162744
        ]
      }
    },
    {
      "type": "Feature",
      "properties": {
        "norad_id": 30411,
        "name": "FENGYUN 1C DEB",
        "group": "fengyun-1c-debris",
        "lat": 26.960324199434286,
        "lon": -93.55750860652645,
        "alt_km": 796.0577390885019,
        "timestamp": "2025-12-26T22:28:06.060568+00:00",
        "meta_object_name": "FENGYUN 1C DEB",
        "meta_object_id": "1999-025AEA",
        "meta_epoch": "2025-12-26T06:59:19.184928",
        "meta_mean_motion": 14.07725896,
        "meta_eccentricity": 0.01238669,
        "meta_inclination": 98.5809,
        "meta_ra_of_asc_node": 270.2342,
        "meta_arg_of_pericenter": 68.4374,
        "meta_mean_anomaly": 292.9944,
        "meta_ephemeris_type": 0,
        "meta_classification_type": "U",
        "meta_norad_cat_id": 30411,
        "meta_element_set_no": 999,
        "meta_rev_at_epoch": 96174,
        "meta_bstar": 0.0016668608,
        "meta_mean_motion_dot": 2.985e-05,
        "meta_mean_motion_ddot": 0,
        "tle_line1": "1 30411U 99025AEA 25360.29119427  .00002985  00000+0  16669-2 0  9998",
        "tle_line2": "2 30411  98.5809 270.2342 0123866  68.4374 292.9944 14.07725896961743"
      },
      "geometry": {
        "type": "Point",
        "coordinates": [
          -93.55750860652645,
          26.960324199434286
        ]
      }
    },
    {
      "type": "Feature",
      "properties": {
        "norad_id": 30413,
        "name": "FENGYUN 1C DEB",
        "group": "fengyun-1c-debris",
        "lat": -73.88176972330417,
        "lon": 11.597219669920092,
        "alt_km": 784.6421295737337,
        "timestamp": "2025-12-26T22:28:06.060578+00:00",
        "meta_object_name": "FENGYUN 1C DEB",
        "meta_object_id": "1999-025AEC",
        "meta_epoch": "2025-12-26T14:42:02.520288",
        "meta_mean_motion": 14.32685188,
        "meta_eccentricity": 0.00441672,
        "meta_inclination": 102.0623,
        "meta_ra_of_asc_node": 238.8757,
        "meta_arg_of_pericenter": 179.4024,
        "meta_mean_anomaly": 210.8604,
        "meta_ephemeris_type": 0,
        "meta_classification_type": "U",
        "meta_norad_cat_id": 30413,
        "meta_element_set_no": 999,
        "meta_rev_at_epoch": 97338,
        "meta_bstar": 0.0021655391,
        "meta_mean_motion_dot": 5.887e-05,
        "meta_mean_motion_ddot": 0,
        "tle_line1": "1 30413U 99025AEC 25360.61252917  .00005887  00000+0  21655-2 0  9993",
        "tle_line2": "2 30413 102.0623 238.8757 0044167 179.4024 210.8604 14.32685188973383"
      },
      "geometry": {
        "type": "Point",
        "coordinates": [
          11.597219669920092,
          -73.88176972330417
        ]
      }
    },
    {
      "type": "Feature",
      "properties": {
        "norad_id": 30414,
        "name": "FENGYUN 1C DEB",
        "group": "fengyun-1c-debris",
        "lat": 63.81580776730411,
        "lon": 139.91767831249695,
        "alt_km": 765.376873092303,
        "timestamp": "2025-12-26T22:28:06.060588+00:00",
        "meta_object_name": "FENGYUN 1C DEB",
        "meta_object_id": "1999-025AED",
        "meta_epoch": "2025-12-26T10:26:38.696640",
        "meta_mean_motion": 14.34341068,
        "meta_eccentricity": 0.00576785,
        "meta_inclination": 99.0808,
        "meta_ra_of_asc_node": 158.3726,
        "meta_arg_of_pericenter": 149.3855,
        "meta_mean_anomaly": 211.0715,
        "meta_ephemeris_type": 0,
        "meta_classification_type": "U",
        "meta_norad_cat_id": 30414,
        "meta_element_set_no": 999,
        "meta_rev_at_epoch": 97283,
        "meta_bstar": 0.0025023416,
        "meta_mean_motion_dot": 7.126e-05,
        "meta_mean_motion_ddot": 0,
        "tle_line1": "1 30414U 99025AED 25360.43517010  .00007126  00000+0  25023-2 0  9993",
        "tle_line2": "2 30414  99.0808 158.3726 0057678 149.3855 211.0715 14.34341068972838"
      },
      "geometry": {
        "type": "Point",
        "coordinates": [
          139.91767831249695,
          63.81580776730411
        ]
      }
    },
    {
      "type": "Feature",
      "properties": {
        "norad_id": 30415,
        "name": "FENGYUN 1C DEB",
        "group": "fengyun-1c-debris",
        "lat": 55.895683646577126,
        "lon": 46.656379981772474,
        "alt_km": 1174.8830844738504,
        "timestamp": "2025-12-26T22:28:06.060599+00:00",
        "meta_object_name": "FENGYUN 1C DEB",
        "meta_object_id": "1999-025AEE",
        "meta_epoch": "2025-12-26T15:56:20.966784",
        "meta_mean_motion": 13.68977813,
        "meta_eccentricity": 0.02405203,
        "meta_inclination": 99.6456,
        "meta_ra_of_asc_node": 60.9288,
        "meta_arg_of_pericenter": 233.6873,
        "meta_mean_anomaly": 283.6555,
        "meta_ephemeris_type": 0,
        "meta_classification_type": "U",
        "meta_norad_cat_id": 30415,
        "meta_element_set_no": 999,
        "meta_rev_at_epoch": 94068,
        "meta_bstar": 0.0014799638,
        "meta_mean_motion_dot": 1.518e-05,
        "meta_mean_motion_ddot": 0,
        "tle_line1": "1 30415U 99025AEE 25360.66413156  .00001518  00000+0  14800-2 0  9995",
        "tle_line2": "2 30415  99.6456  60.9288 0240520 233.6873 283.6555 13.68977813940686"
      },
      "geometry": {
        "type": "Point",
        "coordinates": [
          46.656379981772474,
          55.895683646577126
        ]
      }
    }
  ]
}